{
  "type": "FeatureCollection",
  "features": [
    {
      "type": "Feature",
      "properties": {
        "norad_id": 36744,
        "name": "COMS 1",
        "group": "weather",
        "lat": 3.6000811209289987,
        "lon": 133.77314298732247,
        "alt_km": 35790.45837772395,
        "timestamp": "2025-12-11T18:59:45.708225+00:00",
        "meta_object_name": "COMS 1",
        "meta_object_id": "2010-032A",
        "meta_epoch": "2025-12-10T15:51:52.946208",
        "meta_mean_motion": 1.0027063,
        "meta_eccentricity": 0.00011371,
        "meta_inclination": 4.3367,
        "meta_ra_of_asc_node": 78.0199,
        "meta_arg_of_pericenter": 211.0495,
        "meta_mean_anomaly": 156.7077,
        "meta_ephemeris_type": 0,
        "meta_classification_type": "U",
        "meta_norad_cat_id": 36744,
        "meta_element_set_no": 999,
        "meta_rev_at_epoch": 4920,
        "meta_bstar": 0,
        "meta_mean_motion_dot": -3.4e-06,
        "meta_mean_motion_ddot": 0,
        "tle_line1": "1 36744U 10032A   25344.66102947 -.00000340  00000+0  00000+0 0  9999",
        "tle_line2": "2 36744   4.3367  78.0199 0001137 211.0495 156.7077  1.00270630 49204"
      },
      "geometry": {
        "type": "Point",
        "coordinates": [
          133.77314298732247,
          3.6000811209289987
        ]
      }
    },
    {
      "type": "Feature",
      "properties": {
        "norad_id": 37214,
        "name": "FENGYUN 3B",
        "group": "weather",
        "lat": -66.01008793789588,
        "lon": -175.07800949315202,
        "alt_km": 856.3892916341438,
        "timestamp": "2025-12-11T18:59:45.708237+00:00",
        "meta_object_name": "FENGYUN 3B",
        "meta_object_id": "2010-059A",
        "meta_epoch": "2025-12-11T06:13:52.612608",
        "meta_mean_motion": 14.14789408,
        "meta_eccentricity": 0.00221299,
        "meta_inclination": 98.9906,
        "meta_ra_of_asc_node": 25.2261,
        "meta_arg_of_pericenter": 1.9384,
        "meta_mean_anomaly": 58.5056,
        "meta_ephemeris_type": 0,
        "meta_classification_type": "U",
        "meta_norad_cat_id": 37214,
        "meta_element_set_no": 999,
        "meta_rev_at_epoch": 78085,
        "meta_bstar": 0.00019174731,
        "meta_mean_motion_dot": 3.25e-06,
        "meta_mean_motion_ddot": 0,
        "tle_line1": "1 37214U 10059A   25345.25963672  .00000325  00000+0  19175-3 0  9996",
        "tle_line2": "2 37214  98.9906  25.2261 0022129   1.9384  58.5056 14.14789408780852"
      },
      "geometry": {
        "type": "Point",
        "coordinates": [
          -175.07800949315202,
          -66.01008793789588
        ]
      }
    },
    {
      "type": "Feature",
      "properties": {
        "norad_id": 37849,
        "name": "SUOMI NPP",
        "group": "weather",
        "lat": 70.48851160279496,
        "lon": -102.70799906882756,
        "alt_km": 819.1023180733173,
        "timestamp": "2025-12-11T18:59:45.708249+00:00",
        "meta_object_name": "SUOMI NPP",
        "meta_object_id": "2011-061A",
        "meta_epoch": "2025-12-11T06:48:50.502240",
        "meta_mean_motion": 14.19513625,
        "meta_eccentricity": 0.00022003,
        "meta_inclination": 98.7771,
        "meta_ra_of_asc_node": 282.6386,
        "meta_arg_of_pericenter": 122.8265,
        "meta_mean_anomaly": 237.3123,
        "meta_ephemeris_type": 0,
        "meta_classification_type": "U",
        "meta_norad_cat_id": 37849,
        "meta_element_set_no": 999,
        "meta_rev_at_epoch": 73178,
        "meta_bstar": 0.00011387399,
        "meta_mean_motion_dot": 1.96e-06,
        "meta_mean_motion_ddot": 0,
        "tle_line1": "1 37849U 11061A   25345.28391785  .00000196  00000+0  11387-3 0  9990",
        "tle_line2": "2 37849  98.7771 282.6386 0002200 122.8265 237.3123 14.19513625731781"
      },
      "geometry": {
        "type": "Point",
        "coordinates": [
          -102.70799906882756,
          70.48851160279496
        ]
      }
    },
    {
      "type": "Feature",
      "properties": {
        "norad_id": 38552,
        "name": "METEOSAT-10 (MSG-3)",
        "group": "weather",
        "lat": -3.491849438297262,
        "lon": 5.934567035575592,
        "alt_km": 35783.89478880243,
        "timestamp": "2025-12-11T18:59:45.708262+00:00",
        "meta_object_name": "METEOSAT-10 (MSG-3)",
        "meta_object_id": "2012-035B",
        "meta_epoch": "2025-12-10T23:48:54.537696",
        "meta_mean_motion": 1.00274457,
        "meta_eccentricity": 8.27e-05,
        "meta_inclination": 4.2251,
        "meta_ra_of_asc_node": 61.7286,
        "meta_arg_of_pericenter": 246.6369,
        "meta_mean_anomaly": 128.9806,
        "meta_ephemeris_type": 0,
        "meta_classification_type": "U",
        "meta_norad_cat_id": 38552,
        "meta_element_set_no": 999,
        "meta_rev_at_epoch": 4897,
        "meta_bstar": 0,
        "meta_mean_motion_dot": -1e-08,
        "meta_mean_motion_ddot": 0,
        "tle_line1": "1 38552U 12035B   25344.99229789 -.00000001  00000+0  00000+0 0  9997",
        "tle_line2": "2 38552   4.2251  61.7286 0000827 246.6369 128.9806  1.00274457 48974"
      },
      "geometry": {
        "type": "Point",
        "coordinates": [
          5.934567035575592,
          -3.491849438297262
        ]
      }
    },
    {
      "type": "Feature",
      "properties": {
        "norad_id": 38771,
        "name": "METOP-B",
        "group": "weather",
        "lat": -77.97606359762194,
        "lon": 81.59193845275541,
        "alt_km": 829.2972425605049,
        "timestamp": "2025-12-11T18:59:45.708274+00:00",
        "meta_object_name": "METOP-B",
        "meta_object_id": "2012-049A",
        "meta_epoch": "2025-12-11T05:51:52.223616",
        "meta_mean_motion": 14.21407606,
        "meta_eccentricity": 0.00028442,
        "meta_inclination": 98.6801,
        "meta_ra_of_asc_node": 35.2285,
        "meta_arg_of_pericenter": 147.3464,
        "meta_mean_anomaly": 212.789,
        "meta_ephemeris_type": 0,
        "meta_classification_type": "U",
        "meta_norad_cat_id": 38771,
        "meta_element_set_no": 999,
        "meta_rev_at_epoch": 68656,
        "meta_bstar": 0.00012773756,
        "meta_mean_motion_dot": 2.36e-06,
        "meta_mean_motion_ddot": 0,
        "tle_line1": "1 38771U 12049A   25345.24435444  .00000236  00000+0  12774-3 0  9995",
        "tle_line2": "2 38771  98.6801  35.2285 0002844 147.3464 212.7890 14.21407606686563"
      },
      "geometry": {
        "type": "Point",
        "coordinates": [
          81.59193845275541,
          -77.97606359762194
        ]
      }
    },
    {
      "type": "Feature",
      "properties": {
        "norad_id": 39216,
        "name": "INSAT-3D",
        "group": "weather",
        "lat": 1.1164581872775055,
        "lon": 135.1988460135522,
        "alt_km": 35788.98932881267,
        "timestamp": "2025-12-11T18:59:45.708285+00:00",
        "meta_object_name": "INSAT-3D",
        "meta_object_id": "2013-038B",
        "meta_epoch": "2025-12-10T22:43:08.338656",
        "meta_mean_motion": 1.00270704,
        "meta_eccentricity": 0.00015644,
        "meta_inclination": 1.4406,
        "meta_ra_of_asc_node": 85.0084,
        "meta_arg_of_pericenter": 163.5127,
        "meta_mean_anomaly": 301.7215,
        "meta_ephemeris_type": 0,
        "meta_classification_type": "U",
        "meta_norad_cat_id": 39216,
        "meta_element_set_no": 999,
        "meta_rev_at_epoch": 4519,
        "meta_bstar": 0,
        "meta_mean_motion_dot": -3.34e-06,
        "meta_mean_motion_ddot": 0,
        "tle_line1": "1 39216U 13038B   25344.94662429 -.00000334  00000+0  00000+0 0  9995",
        "tle_line2": "2 39216   1.4406  85.0084 0001564 163.5127 301.7215  1.00270704 45193"
      },
      "geometry": {
        "type": "Point",
        "coordinates": [
          135.1988460135522,
          1.1164581872775055
        ]
      }
    },
    {
      "type": "Feature",
      "properties": {
        "norad_id": 39260,
        "name": "FENGYUN 3C",
        "group": "weather",
        "lat": -4.867830168565353,
        "lon": 142.78947860713708,
        "alt_km": 833.5229556004988,
        "timestamp": "2025-12-11T18:59:45.708297+00:00",
        "meta_object_name": "FENGYUN 3C",
        "meta_object_id": "2013-052A",
        "meta_epoch": "2025-12-11T06:15:06.203808",
        "meta_mean_motion": 14.15696685,
        "meta_eccentricity": 0.00142047,
        "meta_inclination": 98.4761,
        "meta_ra_of_asc_node": 323.0121,
        "meta_arg_of_pericenter": 200.4066,
        "meta_mean_anomaly": 159.6543,
        "meta_ephemeris_type": 0,
        "meta_classification_type": "U",
        "meta_norad_cat_id": 39260,
        "meta_element_set_no": 999,
        "meta_rev_at_epoch": 63197,
        "meta_bstar": 0.00020265796,
        "meta_mean_motion_dot": 3.57e-06,
        "meta_mean_motion_ddot": 0,
        "tle_line1": "1 39260U 13052A   25345.26048847  .00000357  00000+0  20266-3 0  9992",
        "tle_line2": "2 39260  98.4761 323.0121 0014204 200.4066 159.6543 14.15696685631978"
      },
      "geometry": {
        "type": "Point",
        "coordinates": [
          142.78947860713708,
          -4.867830168565353
        ]
      }
    }
  ]
}